COMMENT,ORIGINATOR,NORAD_CAT_ID,OBJECT_NAME,OBJECT_TYPE,CLASSIFICATION_TYPE,INTLDES,EPOCH,EPOCH_MICROSECONDS,MEAN_MOTION,ECCENTRICITY,INCLINATION,RA_OF_ASC_NODE,ARG_OF_PERICENTER,MEAN_ANOMALY,EPHEMERIS_TYPE,ELEMENT_SET_NO,REV_AT_EPOCH,BSTAR,MEAN_MOTION_DOT,MEAN_MOTION_DDOT,FILE,TLE_LINE0,TLE_LINE1,TLE_LINE2,OBJECT_ID,OBJECT_NUMBER,SEMIMAJOR_AXIS,PERIOD,APOGEE,PERIGEE,DECAYED,date
GENERATED VIA SPACETRACK.ORG API,18 SPCS,48894,SPACEBEE-107,PAYLOAD,U,21059R,2023/2/13 7:53,259520,15.23518314,0.000828,97.5796,179.5518,343.8947,16.2025,0,999,9050,0.0016903,0.00040509,0,3789366,0 SPACEBEE-107,1 48894U 21059R   23044.32848680  .00040509  00000-0  16903-2 0  9991,2 48894  97.5796 179.5518 0008280 343.8947  16.2025 15.23518314 90503,2021-059R,48894,6873.375,94.518,500.931,489.549,0,2023/4/3
GENERATED VIA SPACETRACK.ORG API,18 SPCS,48894,SPACEBEE-107,PAYLOAD,U,21059R,2023/2/14 2:47,266080,15.23580236,0.0008259,97.5793,180.3481,341.6399,18.4538,0,999,9062,0.0016715,0.00040129,0,3790192,0 SPACEBEE-107,1 48894U 21059R   23045.11662345  .00040129  00000-0  16715-2 0  9990,2 48894  97.5793 180.3481 0008259 341.6399  18.4538 15.23580236 90620,2021-059R,48894,6873.189,94.514,500.731,489.377,0,2023/4/4
GENERATED VIA SPACETRACK.ORG API,18 SPCS,48894,SPACEBEE-107,PAYLOAD,U,21059R,2023/2/14 7:31,579456,15.235968,0.0008258,97.5797,180.5471,340.8727,19.2198,0,999,9065,0.0016821,0.00040405,0,3791349,0 SPACEBEE-107,1 48894U 21059R   23045.31365254  .00040405  00000-0  16821-2 0  9996,2 48894  97.5797 180.5471 0008258 340.8727  19.2198 15.23596800 90658,2021-059R,48894,6873.139,94.513,500.68,489.328,0,2023/4/5
GENERATED VIA SPACETRACK.ORG API,18 SPCS,48894,SPACEBEE-107,PAYLOAD,U,21059R,2023/2/14 21:42,522528,15.23641194,0.0008226,97.5797,181.1445,339.1096,20.9803,0,999,9074,0.0015692,0.00037724,0,3792084,0 SPACEBEE-107,1 48894U 21059R   23045.90472827  .00037724  00000-0  15692-2 0  9991,2 48894  97.5797 181.1445 0008226 339.1096  20.9803 15.23641194 90740,2021-059R,48894,6873.006,94.51,500.524,489.217,0,2023/4/6
GENERATED VIA SPACETRACK.ORG API,18 SPCS,48894,SPACEBEE-107,PAYLOAD,U,21059R,2023/2/15 7:10,593216,15.23675534,0.0008217,97.5797,181.5427,337.8688,22.2192,0,999,9080,0.0017493,0.0004213,0,3793001,0 SPACEBEE-107,1 48894U 21059R   23046.29876844  .00042130  00000-0  17493-2 0  9999,2 48894  97.5797 181.5427 0008217 337.8688  22.2192 15.23675534 90804,2021-059R,48894,6872.902,94.508,500.415,489.12,0,2023/4/7
GENERATED VIA SPACETRACK.ORG API,18 SPCS,48894,SPACEBEE-107,PAYLOAD,U,21059R,2023/2/15 7:10,593216,15.23675534,0.0008217,97.5797,181.5427,337.8688,22.2192,0,999,9080,0.0017493,0.0004213,0,3793706,0 SPACEBEE-107,1 48894U 21059R   23046.29876844  .00042130  00000-0  17493-2 0  9999,2 48894  97.5797 181.5427 0008217 337.8688  22.2192 15.23675534 90804,2021-059R,48894,6872.902,94.508,500.415,489.12,0,2023/4/8
GENERATED VIA SPACETRACK.ORG API,18 SPCS,48894,SPACEBEE-107,PAYLOAD,U,21059R,2023/2/15 19:46,783264,15.23728025,0.0008224,97.5797,182.0736,335.9169,24.1682,0,999,9088,0.0020642,0.00049856,0,3795153,0 SPACEBEE-107,1 48894U 21059R   23046.82414101  .00049856  00000-0  20642-2 0  9994,2 48894  97.5797 182.0736 0008224 335.9169  24.1682 15.23728025 90881,2021-059R,48894,6872.745,94.505,500.262,488.957,0,2023/4/9
GENERATED VIA SPACETRACK.ORG API,18 SPCS,48894,SPACEBEE-107,PAYLOAD,U,21059R,2023/2/16 8:23,460448,15.23775108,0.0008207,97.5794,182.6046,334.002,26.0803,0,999,9096,0.0019153,0.00046297,0,3797123,0 SPACEBEE-107,1 48894U 21059R   23047.34949607  .00046297  00000-0  19153-2 0  9997,2 48894  97.5794 182.6046 0008207 334.0020  26.0803 15.23775108 90964,2021-059R,48894,6872.603,94.502,500.108,488.828,0,2023/4/10
GENERATED VIA SPACETRACK.ORG API,18 SPCS,48894,SPACEBEE-107,PAYLOAD,U,21059R,2023/2/16 8:23,460448,15.23775108,0.0008207,97.5794,182.6046,334.002,26.0803,0,999,9096,0.0019153,0.00046297,0,3798293,0 SPACEBEE-107,1 48894U 21059R   23047.34949607  .00046297  00000-0  19153-2 0  9997,2 48894  97.5794 182.6046 0008207 334.0020  26.0803 15.23775108 90964,2021-059R,48894,6872.603,94.502,500.108,488.828,0,2023/4/11
GENERATED VIA SPACETRACK.ORG API,18 SPCS,48894,SPACEBEE-107,PAYLOAD,U,21059R,2023/2/17 14:19,738400,15.23874807,0.000826,97.5797,183.8657,328.8918,31.1828,0,999,9115,0.0014202,0.00034357,0,3802730,0 SPACEBEE-107,1 48894U 21059R   23048.59714975  .00034357  00000-0  14202-2 0  9997,2 48894  97.5797 183.8657 0008260 328.8918  31.1828 15.23874807 91156,2021-059R,48894,6872.303,94.496,499.845,488.492,0,2023/4/12
GENERATED VIA SPACETRACK.ORG API,18 SPCS,48894,SPACEBEE-107,PAYLOAD,U,21059R,2023/2/17 14:19,738400,15.23874807,0.000826,97.5797,183.8657,328.8918,31.1828,0,999,9115,0.0014202,0.00034357,0,3803052,0 SPACEBEE-107,1 48894U 21059R   23048.59714975  .00034357  00000-0  14202-2 0  9997,2 48894  97.5797 183.8657 0008260 328.8918  31.1828 15.23874807 91156,2021-059R,48894,6872.303,94.496,499.845,488.492,0,2023/4/13
GENERATED VIA SPACETRACK.ORG API,18 SPCS,48894,SPACEBEE-107,PAYLOAD,U,21059R,2023/2/17 20:38,96704,15.23891338,0.0008278,97.5797,184.1313,327.9655,32.1078,0,999,9119,0.0012736,0.00030804,0,3804075,0 SPACEBEE-107,1 48894U 21059R   23048.85980436  .00030804  00000-0  12736-2 0  9996,2 48894  97.5797 184.1313 0008278 327.9655  32.1078 15.23891338 91196,2021-059R,48894,6872.254,94.495,499.807,488.43,0,2023/4/14
GENERATED VIA SPACETRACK.ORG API,18 SPCS,48894,SPACEBEE-107,PAYLOAD,U,21059R,2023/2/18 7:39,914944,15.23917863,0.0008272,97.58,184.5959,326.415,33.6562,0,999,9126,0.0011711,0.00028331,0,3807124,0 SPACEBEE-107,1 48894U 21059R   23049.31944346  .00028331  00000-0  11711-2 0  9992,2 48894  97.5800 184.5959 0008272 326.4150  33.6562 15.23917863 91263,2021-059R,48894,6872.174,94.493,499.723,488.354,0,2023/4/15
GENERATED VIA SPACETRACK.ORG API,18 SPCS,48894,SPACEBEE-107,PAYLOAD,U,21059R,2023/2/18 7:39,914944,15.23917863,0.0008272,97.58,184.5959,326.415,33.6562,0,999,9126,0.0011711,0.00028331,0,3807442,0 SPACEBEE-107,1 48894U 21059R   23049.31944346  .00028331  00000-0  11711-2 0  9992,2 48894  97.5800 184.5959 0008272 326.4150  33.6562 15.23917863 91263,2021-059R,48894,6872.174,94.493,499.723,488.354,0,2023/4/16
GENERATED VIA SPACETRACK.ORG API,18 SPCS,48894,SPACEBEE-107,PAYLOAD,U,21059R,2023/2/19 7:18,412832,15.23978064,0.0008191,97.5805,185.5916,323.2592,36.8082,0,999,9141,0.0012515,0.00030343,0,3811610,0 SPACEBEE-107,1 48894U 21059R   23050.30435663  .00030343  00000-0  12515-2 0  9999,2 48894  97.5805 185.5916 0008191 323.2592  36.8082 15.23978064 91416,2021-059R,48894,6871.993,94.49,499.487,488.229,0,2023/4/17
GENERATED VIA SPACETRACK.ORG API,18 SPCS,48894,SPACEBEE-107,PAYLOAD,U,21059R,2023/2/20 3:47,142848,15.24025067,0.000818,97.5809,186.4547,320.0601,40.0033,0,999,9154,0.0011601,0.00028153,0,3813842,0 SPACEBEE-107,1 48894U 21059R   23051.15791832  .00028153  00000-0  11601-2 0  9997,2 48894  97.5809 186.4547 0008180 320.0601  40.0033 15.24025067 91548,2021-059R,48894,6871.852,94.487,499.338,488.095,0,2023/4/18
GENERATED VIA SPACETRACK.ORG API,18 SPCS,48894,SPACEBEE-107,PAYLOAD,U,21059R,2023/2/20 8:31,539200,15.2403598,0.000819,97.5809,186.6539,319.5921,40.4707,0,999,9157,0.0011348,0.00027544,0,3815761,0 SPACEBEE-107,1 48894U 21059R   23051.35489050  .00027544  00000-0  11348-2 0  9996,2 48894  97.5809 186.6539 0008190 319.5921  40.4707 15.24035980 91570,2021-059R,48894,6871.819,94.486,499.312,488.056,0,2023/4/19
GENERATED VIA SPACETRACK.ORG API,18 SPCS,48894,SPACEBEE-107,PAYLOAD,U,21059R,2023/2/21 8:09,552768,15.24095291,0.000826,97.5812,187.6499,315.9565,44.1013,0,999,9172,0.0012781,0.00031102,0,3818825,0 SPACEBEE-107,1 48894U 21059R   23052.33972862  .00031102  00000-0  12781-2 0  9990,2 48894  97.5812 187.6499 0008260 315.9565  44.1013 15.24095291 91721,2021-059R,48894,6871.64,94.482,499.181,487.829,0,2023/4/20
GENERATED VIA SPACETRACK.ORG API,18 SPCS,48894,SPACEBEE-107,PAYLOAD,U,21059R,2023/2/21 8:09,552768,15.24095291,0.000826,97.5812,187.6499,315.9565,44.1013,0,999,9172,0.0012781,0.00031102,0,3819803,0 SPACEBEE-107,1 48894U 21059R   23052.33972862  .00031102  00000-0  12781-2 0  9990,2 48894  97.5812 187.6499 0008260 315.9565  44.1013 15.24095291 91721,2021-059R,48894,6871.64,94.482,499.181,487.829,0,2023/4/21
GENERATED VIA SPACETRACK.ORG API,18 SPCS,48894,SPACEBEE-107,PAYLOAD,U,21059R,2023/2/21 20:45,448096,15.24131057,0.000825,97.5813,188.1807,313.6763,46.3789,0,999,9180,0.0013464,0.0003281,0,3821329,0 SPACEBEE-107,1 48894U 21059R   23052.86495889  .00032810  00000-0  13464-2 0  9993,2 48894  97.5813 188.1807 0008250 313.6763  46.3789 15.24131057 91809,2021-059R,48894,6871.533,94.48,499.067,487.729,0,2023/4/22
GENERATED VIA SPACETRACK.ORG API,18 SPCS,48894,SPACEBEE-107,PAYLOAD,U,21059R,2023/2/22 7:47,36896,15.24157874,0.0008247,97.5814,188.6457,312.3522,47.7016,0,999,9187,0.0011945,0.00029109,0,3824148,0 SPACEBEE-107,1 48894U 21059R   23053.32452589  .00029109  00000-0  11945-2 0  9994,2 48894  97.5814 188.6457 0008247 312.3522  47.7016 15.24157874 91871,2021-059R,48894,6871.452,94.478,498.984,487.65,0,2023/4/23
GENERATED VIA SPACETRACK.ORG API,18 SPCS,48894,SPACEBEE-107,PAYLOAD,U,21059R,2023/2/22 21:58,310656,15.2419471,0.0008209,97.5816,189.243,310.1921,49.8596,0,999,9196,0.0012276,0.00029953,0,3825529,0 SPACEBEE-107,1 48894U 21059R   23053.91538554  .00029953  00000-0  12276-2 0  9991,2 48894  97.5816 189.2430 0008209 310.1921  49.8596 15.24194710 91964,2021-059R,48894,6871.342,94.476,498.847,487.566,0,2023/4/24
GENERATED VIA SPACETRACK.ORG API,18 SPCS,48894,SPACEBEE-107,PAYLOAD,U,21059R,2023/2/22 21:58,310656,15.2419471,0.0008209,97.5816,189.243,310.1921,49.8596,0,999,9196,0.0012276,0.00029953,0,3826178,0 SPACEBEE-107,1 48894U 21059R   23053.91538554  .00029953  00000-0  12276-2 0  9991,2 48894  97.5816 189.2430 0008209 310.1921  49.8596 15.24194710 91964,2021-059R,48894,6871.342,94.476,498.847,487.566,0,2023/4/25
